TEMPEST-D               
1 43547U 98067NV  19132.13364658  .00004912  00000-0  72171-4 0  9993
2 43547  51.6377 174.7261 0005974 347.8029  12.2818 15.57484546 46720
RAINCUBE                
1 43548U 98067NW  19132.08429556  .00017085  00000-0  20838-3 0  9994
2 43548  51.6361 172.1396 0006388 359.0709   1.0271 15.60572839 47205
HALOSAT                 
1 43549U 98067NX  19132.34252273  .00015990  00000-0  19560-3 0  9997
2 43549  51.6366 170.8711 0006276   2.5948 357.5077 15.60554602 46804
ENDUROSAT ONE           
1 43551U 98067NZ  19132.14269035  .00020784  00000-0  24000-3 0  9994
2 43551  51.6368 170.2913 0006901   8.0398 352.0705 15.61848314 47202
EQUISAT                 
1 43552U 98067PA  19132.47994514  .00018720  00000-0  22533-3 0  9994
2 43552  51.6380 169.5574 0007082   8.4147 351.6964 15.60841237 47206
AEROCUBE 12A            
1 43556U 18046C   19131.53853393  .00000639  00000-0  35309-4 0  9998
2 43556  51.6427 239.6542 0007920 295.0616  64.9541 15.28596212 45726
AEROCUBE 12B            
1 43557U 18046D   19131.54899311  .00000622  00000-0  34817-4 0  9995
2 43557  51.6431 239.7207 0007962 295.1001  64.9152 15.28484037 45679
UITMSAT-1               
1 43589U 98067PD  19132.10029130  .00019636  00000-0  23617-3 0  9998
2 43589  51.6352 172.2333 0006505  14.1166 346.0008 15.60828460 42871
MAYA-1                  
1 43590U 98067PE  19132.48001776  .00021061  00000-0  25242-3 0  9998
2 43590  51.6356 170.2725 0006645  15.6474 344.4724 15.60869631 42864
BHUTAN-1                
1 43591U 98067PF  19132.15189362  .00019029  00000-0  22839-3 0  9991
2 43591  51.6368 171.8459 0006821  15.3810 344.7389 15.60905553 42815
SIRIUSSAT-1             
1 43595U 98067PG  19132.11974942  .00018687  00000-0  23081-3 0  9996
2 43595  51.6356 173.1147 0004133 341.2074  18.8766 15.60180355 41971
SIRIUSSAT-2             
1 43596U 98067PH  19132.14624051  .00018737  00000-0  23280-3 0  9990
2 43596  51.6366 173.3206 0004684 340.4315  19.6498 15.60019623 41971
TANUSHA-3               
1 43597U 98067PJ  19132.17758077  .00025543  00000-0  29973-3 0  9998
2 43597  51.6351 171.9787 0004599 354.1338   5.9601 15.61306729 41999
SURFSAT                 
1 43614U 18070B   19131.78131958  .00002771  00000-0  75519-4 0  9999
2 43614  93.0261 348.0390 0018973  91.8463 268.4963 15.37357867 36589
CP7 (DAVE)              
1 43615U 18070C   19132.11070294  .00003411  00000-0  93102-4 0  9993
2 43615  93.0264 348.1769 0019132  90.4444 269.9001 15.37294706 36633
ELFIN-B                 
1 43616U 18070D   19132.13267047  .00004976  00000-0  13331-3 0  9992
2 43616  93.0229 348.1052 0019974  93.5560 266.7978 15.37834540 36642
ELFIN-A                 
1 43617U 18070E   19131.86718564  .00005379  00000-0  14403-3 0  9996
2 43617  93.0285 348.1813 0019068  91.6557 268.6880 15.37866910 36604
CUBEBEL-1 (BSUSAT-1)    
1 43666U 18083E   19132.43468748  .00001019  00000-0  54148-4 0  9992
2 43666  97.5222 157.1621 0014233 323.6785 144.2872 15.17499058 29631
DEBRISSAT-2             
1 43680U 98067PR  19132.55869875  .00020357  00000-0  23619-3 0  9991
2 43680  51.6370 170.0463 0005188  15.3707 344.7451 15.61750252 50794
CICERO 10               
1 43690U 18088A   19131.82908068  .00001211  00000-0  54954-4 0  9999
2 43690  85.0372 343.4413 0014920 355.5663   4.5443 15.19588066 27581
IRVINE01                
1 43693U 18088D   19131.85880139  .00003395  00000-0  14988-3 0  9990
2 43693  85.0353 343.1060 0017705 339.4221  20.6305 15.21222742 27612
PROXIMA I               
1 43694U 18088E   19132.08131071  .00001137  00000-0  48828-4 0  9994
2 43694  85.0315 342.8124 0018282 328.7423  31.2730 15.21318347 27655
PROXIMA II              
1 43696U 18088G   19131.81748914  .00000901  00000-0  38319-4 0  9998
2 43696  85.0316 342.9875 0018341 329.7192  30.2988 15.21322089 27610
FACSAT-1                
1 43721U 18096C   19132.49580876  .00002758  00000-0  10903-3 0  9992
2 43721  97.4613 202.4194 0019867 100.7473 259.6003 15.26177160 25068
CENTAURI-2              
1 43722U 18096D   19131.82581929  .00002826  00000-0  11099-3 0  9992
2 43722  97.4612 201.7824 0020023 103.6398 256.7072 15.26370464 24957
INNOSAT-2               
1 43738U 18096V   19132.52954771  .00004879  00000-0  17707-3 0  9998
2 43738  97.4614 202.9848 0026371 112.6458 247.7575 15.28474911 25104
SIRION PATHFINDER-2     
1 43759U 18099B   19132.50820364 -.00000091  00000-0 -30629-5 0  9996
2 43759  97.7467 204.9445 0015869  85.4485 274.8548 14.95112207 23860
CORVUS-BC 4             
1 43767U 18099K   19132.16569678  .00000171  00000-0  21132-4 0  9990
2 43767  97.7454 204.4400 0013419  89.3755 270.9003 14.94556232 23810
SHIELDS 1               
1 43850U 18104B   19131.81886864  .00000042  00000-0  00000+0 0  9993
2 43850  85.0293  81.4787 0017446 106.3056 254.0161 15.21044352 22265
STF-1                   
1 43852U 18104D   19131.94343757  .00000041  00000-0  00000+0 0  9997
2 43852  85.0328  81.5767 0017016 116.6404 243.6616 15.20521856 22277
ZACUBE-2                
1 43907U 18111AH  19132.51706326  .00000754  00000-0  33651-4 0  9999
2 43907  97.2928  38.7695 0023237 120.1371 240.2173 15.24143635 20782
LUME 1                  
1 43908U 18111AJ  19131.52837799  .00001041  00000-0  45235-4 0  9990
2 43908  97.2927  37.8156 0023137 123.5058 236.8395 15.24246686 20633
AOBA VELOX-IV           
1 43940U 19003J   19132.51558097  .00001796  00000-0  77270-4 0  9999
2 43940  97.2791 191.5232 0024012 199.4244 267.8063 15.23654395 17421
CATSAT-2                
1 44029U 98067PV  19132.10612849  .00013846  00000-0  20338-3 0  9997
2 44029  51.6386 179.0480 0005594  10.0793 350.0309 15.55780687 15729
DELPHINI                
1 44030U 98067PW  19132.48894715  .00015823  00000-0  23069-3 0  9995
2 44030  51.6377 177.0993 0005428  10.7493 349.3613 15.55860528 15753
UNITE                   
1 44031U 98067PX  19132.37822829  .00010405  00000-0  15788-3 0  9991
2 44031  51.6379 177.8606 0003866  10.2659 349.8410 15.55215133 15732
TECHEDSAT 8             
1 44032U 98067PY  19132.16400449  .00031430  00000-0  41527-3 0  9990
2 44032  51.6373 177.9302 0005085   4.6712 355.4327 15.58055666 15694
CATSAT-1                
1 44033U 98067PZ  19132.17028586  .00012667  00000-0  18674-3 0  9998
2 44033  51.6386 178.7267 0005424  10.9245 349.1863 15.55772978 15645
